[{"OBJECT_NAME":"HULIANWANG DIGUI-129","OBJECT_ID":"2025-311B","EPOCH":"2026-03-03T17:29:40.727040","MEAN_MOTION":13.35219685,"ECCENTRICITY":9.93e-5,"INCLINATION":50.0066,"RA_OF_ASC_NODE":133.8986,"ARG_OF_PERICENTER":301.9607,"MEAN_ANOMALY":58.1171,"EPHEMERIS_TYPE":0,"CLASSIFICATION_TYPE":"U","NORAD_CAT_ID":67237,"ELEMENT_SET_NO":999,"REV_AT_EPOCH":931,"BSTAR":0.00013023,"MEAN_MOTION_DOT":-6.0e-7,"MEAN_MOTION_DDOT":0},{"OBJECT_NAME":"HULIANWANG DIGUI-130","OBJECT_ID":"2025-311C","EPOCH":"2026-03-03T16:48:24.549696","MEAN_MOTION":13.34114122,"ECCENTRICITY":5.942e-5,"INCLINATION":50.0013,"RA_OF_ASC_NODE":134.379,"ARG_OF_PERICENTER":38.75,"MEAN_ANOMALY":321.3417,"EPHEMERIS_TYPE":0,"CLASSIFICATION_TYPE":"U","NORAD_CAT_ID":67238,"ELEMENT_SET_NO":999,"REV_AT_EPOCH":930,"BSTAR":0.00015550236,"MEAN_MOTION_DOT":-4.8e-7,"MEAN_MOTION_DDOT":0},{"OBJECT_NAME":"HULIANWANG DIGUI-131","OBJECT_ID":"2025-311D","EPOCH":"2026-03-03T08:00:29.422368","MEAN_MOTION":13.3442237,"ECCENTRICITY":0.0005678,"INCLINATION":49.9936,"RA_OF_ASC_NODE":135.7993,"ARG_OF_PERICENTER":327.2224,"MEAN_ANOMALY":32.8297,"EPHEMERIS_TYPE":0,"CLASSIFICATION_TYPE":"U","NORAD_CAT_ID":67239,"ELEMENT_SET_NO":999,"REV_AT_EPOCH":925,"BSTAR":0.00013601,"MEAN_MOTION_DOT":-5.8e-7,"MEAN_MOTION_DDOT":0},{"OBJECT_NAME":"HULIANWANG DIGUI-132","OBJECT_ID":"2025-311E","EPOCH":"2026-03-03T18:13:43.635648","MEAN_MOTION":13.34490208,"ECCENTRICITY":0.00014724,"INCLINATION":50.0013,"RA_OF_ASC_NODE":134.0344,"ARG_OF_PERICENTER":67.1019,"MEAN_ANOMALY":293.0011,"EPHEMERIS_TYPE":0,"CLASSIFICATION_TYPE":"U","NORAD_CAT_ID":67240,"ELEMENT_SET_NO":999,"REV_AT_EPOCH":931,"BSTAR":0.00012967331,"MEAN_MOTION_DOT":-6.1e-7,"MEAN_MOTION_DDOT":0},{"OBJECT_NAME":"HULIANWANG DIGUI-133","OBJECT_ID":"2025-311F","EPOCH":"2026-03-03T07:04:49.188000","MEAN_MOTION":13.35393752,"ECCENTRICITY":0.0002448,"INCLINATION":50.014,"RA_OF_ASC_NODE":135.6304,"ARG_OF_PERICENTER":326.9148,"MEAN_ANOMALY":33.1574,"EPHEMERIS_TYPE":0,"CLASSIFICATION_TYPE":"U","NORAD_CAT_ID":67241,"ELEMENT_SET_NO":999,"REV_AT_EPOCH":925,"BSTAR":0.00013348,"MEAN_MOTION_DOT":-5.8e-7,"MEAN_MOTION_DDOT":0},{"OBJECT_NAME":"HULIANWANG DIGUI-134","OBJECT_ID":"2025-311G","EPOCH":"2026-03-03T07:16:01.742016","MEAN_MOTION":13.35199419,"ECCENTRICITY":0.00035,"INCLINATION":50.0133,"RA_OF_ASC_NODE":135.6083,"ARG_OF_PERICENTER":4.1069,"MEAN_ANOMALY":355.9834,"EPHEMERIS_TYPE":0,"CLASSIFICATION_TYPE":"U","NORAD_CAT_ID":67242,"ELEMENT_SET_NO":999,"REV_AT_EPOCH":925,"BSTAR":0.00013519,"MEAN_MOTION_DOT":-5.8e-7,"MEAN_MOTION_DDOT":0},{"OBJECT_NAME":"HULIANWANG DIGUI-135","OBJECT_ID":"2025-311H","EPOCH":"2026-03-03T07:37:56.755200","MEAN_MOTION":13.34705869,"ECCENTRICITY":8.88e-5,"INCLINATION":50.0012,"RA_OF_ASC_NODE":135.6851,"ARG_OF_PERICENTER":276.4135,"MEAN_ANOMALY":83.6638,"EPHEMERIS_TYPE":0,"CLASSIFICATION_TYPE":"U","NORAD_CAT_ID":67243,"ELEMENT_SET_NO":999,"REV_AT_EPOCH":925,"BSTAR":0.00013544,"MEAN_MOTION_DOT":-5.8e-7,"MEAN_MOTION_DDOT":0},{"OBJECT_NAME":"HULIANWANG DIGUI-136","OBJECT_ID":"2025-311J","EPOCH":"2026-03-03T06:53:48.930432","MEAN_MOTION":13.35587064,"ECCENTRICITY":0.0001735,"INCLINATION":50.012,"RA_OF_ASC_NODE":135.5779,"ARG_OF_PERICENTER":318.4477,"MEAN_ANOMALY":41.6266,"EPHEMERIS_TYPE":0,"CLASSIFICATION_TYPE":"U","NORAD_CAT_ID":67244,"ELEMENT_SET_NO":999,"REV_AT_EPOCH":925,"BSTAR":0.00012287,"MEAN_MOTION_DOT":-6.3e-7,"MEAN_MOTION_DDOT":0},{"OBJECT_NAME":"HULIANWANG DIGUI-137","OBJECT_ID":"2026-007A","EPOCH":"2026-03-03T07:04:58.475136","MEAN_MOTION":13.44406332,"ECCENTRICITY":0.000175,"INCLINATION":50.008,"RA_OF_ASC_NODE":106.1504,"ARG_OF_PERICENTER":116.8855,"MEAN_ANOMALY":243.2203,"EPHEMERIS_TYPE":0,"CLASSIFICATION_TYPE":"U","NORAD_CAT_ID":67435,"ELEMENT_SET_NO":999,"REV_AT_EPOCH":669,"BSTAR":0.00017597,"MEAN_MOTION_DOT":-2.6e-7,"MEAN_MOTION_DDOT":0},{"OBJECT_NAME":"HULIANWANG DIGUI-138","OBJECT_ID":"2026-007B","EPOCH":"2026-03-03T07:24:38.052864","MEAN_MOTION":13.43759549,"ECCENTRICITY":5.94e-5,"INCLINATION":50.0071,"RA_OF_ASC_NODE":106.2207,"ARG_OF_PERICENTER":208.7566,"MEAN_ANOMALY":151.328,"EPHEMERIS_TYPE":0,"CLASSIFICATION_TYPE":"U","NORAD_CAT_ID":67436,"ELEMENT_SET_NO":999,"REV_AT_EPOCH":669,"BSTAR":0.00017308,"MEAN_MOTION_DOT":-2.9e-7,"MEAN_MOTION_DDOT":0},{"OBJECT_NAME":"HULIANWANG DIGUI-139","OBJECT_ID":"2026-007C","EPOCH":"2026-03-04T02:53:02.831424","MEAN_MOTION":13.43164524,"ECCENTRICITY":0.0002852,"INCLINATION":50.0246,"RA_OF_ASC_NODE":103.1864,"ARG_OF_PERICENTER":300.7279,"MEAN_ANOMALY":59.3318,"EPHEMERIS_TYPE":0,"CLASSIFICATION_TYPE":"U","NORAD_CAT_ID":67437,"ELEMENT_SET_NO":999,"REV_AT_EPOCH":680,"BSTAR":0.00021428,"MEAN_MOTION_DOT":-6.0e-8,"MEAN_MOTION_DDOT":0},{"OBJECT_NAME":"HULIANWANG DIGUI-140","OBJECT_ID":"2026-007D","EPOCH":"2026-03-03T07:34:49.743264","MEAN_MOTION":13.43527491,"ECCENTRICITY":6.14e-5,"INCLINATION":50.0067,"RA_OF_ASC_NODE":106.2628,"ARG_OF_PERICENTER":210.9692,"MEAN_ANOMALY":149.1151,"EPHEMERIS_TYPE":0,"CLASSIFICATION_TYPE":"U","NORAD_CAT_ID":67438,"ELEMENT_SET_NO":999,"REV_AT_EPOCH":669,"BSTAR":0.00019621,"MEAN_MOTION_DOT":-1.6e-7,"MEAN_MOTION_DDOT":0},{"OBJECT_NAME":"HULIANWANG DIGUI-141","OBJECT_ID":"2026-007E","EPOCH":"2026-03-03T06:55:42.091104","MEAN_MOTION":13.44477946,"ECCENTRICITY":9.68e-5,"INCLINATION":50.0174,"RA_OF_ASC_NODE":106.0944,"ARG_OF_PERICENTER":218.2312,"MEAN_ANOMALY":141.8498,"EPHEMERIS_TYPE":0,"CLASSIFICATION_TYPE":"U","NORAD_CAT_ID":67439,"ELEMENT_SET_NO":999,"REV_AT_EPOCH":669,"BSTAR":0.00017763,"MEAN_MOTION_DOT":-2.5e-7,"MEAN_MOTION_DDOT":0},{"OBJECT_NAME":"HULIANWANG DIGUI-142","OBJECT_ID":"2026-007F","EPOCH":"2026-03-03T08:33:22.325760","MEAN_MOTION":13.44570039,"ECCENTRICITY":0.0002044,"INCLINATION":50.014,"RA_OF_ASC_NODE":105.8375,"ARG_OF_PERICENTER":183.9251,"MEAN_ANOMALY":176.1612,"EPHEMERIS_TYPE":0,"CLASSIFICATION_TYPE":"U","NORAD_CAT_ID":67440,"ELEMENT_SET_NO":999,"REV_AT_EPOCH":670,"BSTAR":3.7181e-5,"MEAN_MOTION_DOT":-1.08e-6,"MEAN_MOTION_DDOT":0},{"OBJECT_NAME":"HULIANWANG DIGUI-143","OBJECT_ID":"2026-007G","EPOCH":"2026-03-03T06:37:00.254496","MEAN_MOTION":13.44825453,"ECCENTRICITY":0.0001458,"INCLINATION":50.0133,"RA_OF_ASC_NODE":106.0859,"ARG_OF_PERICENTER":312.0229,"MEAN_ANOMALY":48.0526,"EPHEMERIS_TYPE":0,"CLASSIFICATION_TYPE":"U","NORAD_CAT_ID":67441,"ELEMENT_SET_NO":999,"REV_AT_EPOCH":669,"BSTAR":0.00017428,"MEAN_MOTION_DOT":-2.7e-7,"MEAN_MOTION_DDOT":0},{"OBJECT_NAME":"HULIANWANG DIGUI-144","OBJECT_ID":"2026-007H","EPOCH":"2026-03-03T20:43:28.328448","MEAN_MOTION":13.44795868,"ECCENTRICITY":0.0001318,"INCLINATION":50.0065,"RA_OF_ASC_NODE":103.8519,"ARG_OF_PERICENTER":106.0937,"MEAN_ANOMALY":254.0087,"EPHEMERIS_TYPE":0,"CLASSIFICATION_TYPE":"U","NORAD_CAT_ID":67442,"ELEMENT_SET_NO":999,"REV_AT_EPOCH":677,"BSTAR":0.00016706,"MEAN_MOTION_DOT":-3.1e-7,"MEAN_MOTION_DDOT":0}]
